{
  "norad_id": 57199,
  "name": "SITRO-AIS 10 (BURDAEV)",
  "history": [
    {
      "epoch": "2026-03-28T20:25:25.638816Z",
      "apogee_km": 463.73178538169395,
      "perigee_km": 454.7968061164347,
      "latitude_deg": -2.350220462052649e-05,
      "longitude_deg": 24.013763584672006,
      "height_km": 458.02295928957494,
      "semi_major_axis_km": 6837.401295749064,
      "eccentricity": 0.00065339,
      "inclination_deg": 97.5154,
      "raan_deg": 156.6361,
      "arg_perigee_deg": 13.3814,
      "mean_anomaly_deg": 346.7601,
      "mean_motion_rev_day": 15.3555776
    },
    {
      "epoch": "2026-03-29T04:14:36.694176Z",
      "apogee_km": 463.6856588276778,
      "perigee_km": 454.71233906266207,
      "latitude_deg": -2.396576575618268e-05,
      "longitude_deg": -93.27114553462374,
      "height_km": 457.9141918319722,
      "semi_major_axis_km": 6837.335998945169,
      "eccentricity": 0.0006562,
      "inclination_deg": 97.5153,
      "raan_deg": 156.9684,
      "arg_perigee_deg": 11.9172,
      "mean_anomaly_deg": 348.2225,
      "mean_motion_rev_day": 15.35579757
    }
  ]
}